NORAD_CAT_ID,OBJECT_NAME,OBJECT_TYPE,EPOCH,MEAN_MOTION,ECCENTRICITY,INCLINATION,RA_OF_ASC_NODE,ARG_OF_PERICENTER,MEAN_ANOMALY,BSTAR,MEAN_MOTION_DOT,MEAN_MOTION_DDOT,TLE_LINE0,TLE_LINE1,TLE_LINE2,SEMIMAJOR_AXIS,PERIOD,APOGEE,PERIGEE,DECAYED
55300.0,STARLINK-5308,PAYLOAD,2023-02-24 18:01:06,15.69928733,0.0002339,70.0013,327.077,293.494,66.601,7.383e-05,8.675e-05,0.0,0 STARLINK-5308,1 55300U 23010AH  23055.75076655  .00008675  00000-0  73830-4 0  9996,2 55300  70.0013 327.0770 0002339 293.4940  66.6010 15.69928733  6198,6737.238,91.724,360.679,357.527,0.0
55300.0,STARLINK-5308,PAYLOAD,2023-02-24 19:32:51,15.69927925,0.0003488,70.0001,326.898,271.9643,88.1153,0.00010855,0.00012862,0.0,0 STARLINK-5308,1 55300U 23010AH  23055.81448087  .00012862  00000-0  10855-3 0  9995,2 55300  70.0001 326.8980 0003488 271.9643  88.1153 15.69927925  6517,6737.24,91.724,361.455,356.755,0.0
55300.0,STARLINK-5308,PAYLOAD,2023-02-25 06:15:07,15.69925375,0.0003572,69.9997,325.643,269.6477,90.4309,8.7343e-05,0.00010303,0.0,0 STARLINK-5308,1 55300U 23010AH  23056.26049810  .00010303  00000-0  87343-4 0  9991,2 55300  69.9997 325.6430 0003572 269.6477  90.4309 15.69925375  6277,6737.248,91.724,361.519,356.706,0.0
55300.0,STARLINK-5308,PAYLOAD,2023-02-25 18:29:08,15.69920817,0.0003368,69.9998,324.2098,266.0837,93.9973,2.7736e-05,3.123e-05,0.0,0 STARLINK-5308,1 55300U 23010AH  23056.77023411  .00003123  00000-0  27736-4 0  9998,2 55300  69.9998 324.2098 0003368 266.0837  93.9973 15.69920817  6357,6737.261,91.724,361.395,356.856,0.0
55300.0,STARLINK-5308,PAYLOAD,2023-02-25 20:00:53,15.6992018,0.0003271,69.9996,324.0308,268.4667,91.6154,1.1154e-05,1.128e-05,0.0,0 STARLINK-5308,1 55300U 23010AH  23056.83395161  .00001128  00000-0  11154-4 0  9999,2 55300  69.9996 324.0308 0003271 268.4667  91.6154 15.69920180  6671,6737.262,91.724,361.331,356.924,0.0
55300.0,STARLINK-5308,PAYLOAD,2023-02-26 05:11:23,15.69948766,0.000309,70.0014,322.957,261.5305,98.5541,9.669e-05,0.00011441,0.0,0 STARLINK-5308,1 55300U 23010AH  23057.21624355  .00011441  00000-0  96690-4 0  9999,2 55300  70.0014 322.9570 0003090 261.5305  98.5541 15.69948766  6424,6737.181,91.723,361.127,356.964,0.0
55300.0,STARLINK-5308,PAYLOAD,2023-02-26 17:25:24,15.69929715,0.0003234,70.0019,321.5231,259.5588,100.5243,2.9095e-05,3.288e-05,0.0,0 STARLINK-5308,1 55300U 23010AH  23057.72598156  .00003288  00000-0  29095-4 0  9999,2 55300  70.0019 321.5231 0003234 259.5588 100.5243 15.69929715  6503,6737.235,91.724,361.279,356.921,0.0
55300.0,STARLINK-5308,PAYLOAD,2023-02-27 05:39:25,15.69934991,0.000329,70.0003,320.0896,260.8908,99.1916,4.0866e-05,4.706e-05,0.0,0 STARLINK-5308,1 55300U 23010AH  23058.23571267  .00004706  00000-0  40866-4 0  9995,2 55300  70.0003 320.0896 0003290 260.8908  99.1916 15.69934991  6894,6737.22,91.724,361.302,356.868,0.0
55300.0,STARLINK-5308,PAYLOAD,2023-02-27 16:21:40,15.69954001,0.0003411,70.0001,318.8356,261.9513,98.1295,8.748e-05,0.00010332,0.0,0 STARLINK-5308,1 55300U 23010AH  23058.68172107  .00010332  00000-0  87480-4 0  9999,2 55300  70.0001 318.8356 0003411 261.9513  98.1295 15.69954001  6654,6737.166,91.722,361.329,356.733,0.0
55300.0,STARLINK-5308,PAYLOAD,2023-02-27 20:56:56,15.69923643,0.000226,70.0013,318.2984,240.6709,119.4261,-3.1533e-05,-4.001e-05,0.0,0 STARLINK-5308,1 55300U 23010AH  23058.87287801 -.00004001  00000-0 -31533-4 0  9994,2 55300  70.0013 318.2984 0002260 240.6709 119.4261 15.69923643  6995,6737.252,91.724,360.64,357.595,0.0
55300.0,STARLINK-5308,PAYLOAD,2023-02-28 06:07:27,15.69919113,0.0003914,70.0001,317.2227,275.8788,84.1962,-9.535e-06,-1.359e-05,0.0,0 STARLINK-5308,1 55300U 23010AH  23059.25517971 -.00001359  00000-0 -95350-5 0  9992,2 55300  70.0001 317.2227 0003914 275.8788  84.1962 15.69919113  6741,6737.265,91.724,361.767,356.493,0.0
55300.0,STARLINK-5308,PAYLOAD,2023-02-28 19:53:15,15.69898021,0.0003236,70.0012,315.6101,275.5513,84.5314,-3.1344e-05,-3.975e-05,0.0,0 STARLINK-5308,1 55300U 23010AH  23059.82864586 -.00003975  00000-0 -31344-4 0  9990,2 55300  70.0012 315.6101 0003236 275.5513  84.5314 15.69898021  7140,6737.326,91.726,361.371,357.011,0.0
55300.0,STARLINK-5308,PAYLOAD,2023-03-01 05:03:45,15.69933298,0.0003379,70.0008,314.5352,282.9891,77.0927,0.00024081,0.00028853,0.0,0 STARLINK-5308,1 55300U 23010AH  23060.21094686  .00028853  00000-0  24081-3 0  9990,2 55300  70.0008 314.5352 0003379 282.9891  77.0927 15.69933298  6894,6737.225,91.724,361.366,356.813,0.0
55300.0,STARLINK-5308,PAYLOAD,2023-03-01 20:21:16,15.69939867,0.0003684,70.0013,312.7442,300.3604,59.7227,8.9313e-05,0.00010547,0.0,0 STARLINK-5308,1 55300U 23010AH  23060.84811122  .00010547  00000-0  89313-4 0  9992,2 55300  70.0013 312.7442 0003684 300.3604  59.7227 15.69939867  7301,6737.206,91.723,361.553,356.589,0.0
55300.0,STARLINK-5308,PAYLOAD,2023-03-02 19:17:33,15.6992797,0.0003025,70.0024,310.0596,261.753,98.3322,2.3939e-05,2.667e-05,0.0,0 STARLINK-5308,1 55300U 23010AH  23061.80385769  .00002667  00000-0  23939-4 0  9998,2 55300  70.0024 310.0596 0003025 261.7530  98.3322 15.69927970  7454,6737.24,91.724,361.143,357.067,0.0
55300.0,STARLINK-5308,PAYLOAD,2023-03-03 02:56:18,15.69935797,0.0002862,70.0014,309.1641,269.3582,90.7285,1.2328e-05,1.271e-05,0.0,0 STARLINK-5308,1 55300U 23010AH  23062.12243720  .00001271  00000-0  12328-4 0  9994,2 55300  70.0014 309.1641 0002862 269.3582  90.7285 15.69935797  7193,6737.218,91.723,361.011,357.154,0.0
55300.0,STARLINK-5308,PAYLOAD,2023-03-03 22:49:04,15.6994412,0.0003511,70.002,306.8352,258.6758,101.4043,4.3708e-05,5.05e-05,0.0,0 STARLINK-5308,1 55300U 23010AH  23062.95074832  .00005050  00000-0  43708-4 0  9996,2 55300  70.0020 306.8352 0003511 258.6758 101.4043 15.69944120  7632,6737.194,91.723,361.424,356.693,0.0
55300.0,STARLINK-5308,PAYLOAD,2023-03-04 04:56:05,15.69940846,0.0003175,70.0006,306.1156,262.052,98.0315,3.2912e-05,3.749e-05,0.0,0 STARLINK-5308,1 55300U 23010AH  23063.20561356  .00003749  00000-0  32912-4 0  9995,2 55300  70.0006 306.1156 0003175 262.0520  98.0315 15.69940846  7367,6737.203,91.723,361.207,356.929,0.0
55300.0,STARLINK-5308,PAYLOAD,2023-03-04 18:41:52,15.69915915,0.0002896,70.0018,304.5054,262.9033,97.1833,-3.8764e-06,-6.78e-06,0.0,0 STARLINK-5308,1 55300U 23010AH  23063.77907932 -.00000678  00000-0 -38764-5 0  9993,2 55300  70.0018 304.5054 0002896 262.9033  97.1833 15.69915915  7450,6737.275,91.725,361.091,357.188,0.0
55300.0,STARLINK-5308,PAYLOAD,2023-03-05 22:13:23,15.69939716,0.0003425,70.001,301.2813,264.0412,96.0393,3.6273e-05,4.154e-05,0.0,0 STARLINK-5308,1 55300U 23010AH  23064.92596800  .00004154  00000-0  36273-4 0  9992,2 55300  70.0010 301.2813 0003425 264.0412  96.0393 15.69939716  7636,6737.206,91.723,361.379,356.764,0.0
55300.0,STARLINK-5308,PAYLOAD,2023-03-06 04:20:24,15.69927489,0.0003335,69.9998,300.5632,265.4925,94.589,7.7813e-06,7.23e-06,0.0,0 STARLINK-5308,1 55300U 23010AH  23065.18083662  .00000723  00000-0  77813-5 0  9992,2 55300  69.9998 300.5632 0003335 265.4925  94.5890 15.69927489  7676,6737.241,91.724,361.353,356.86,0.0
55300.0,STARLINK-5308,PAYLOAD,2023-03-06 19:37:56,15.6992914,0.0002867,70.0016,298.7726,254.2934,105.7945,2.6757e-05,3.006e-05,0.0,0 STARLINK-5308,1 55300U 23010AH  23065.81801041  .00003006  00000-0  26757-4 0  9998,2 55300  70.0016 298.7726 0002867 254.2934 105.7945 15.69929140  7770,6737.237,91.724,361.033,357.17,0.0
55300.0,STARLINK-5308,PAYLOAD,2023-03-07 03:16:41,15.6994632,0.0003702,69.9995,297.8752,264.5947,95.4826,8.0585e-05,9.497e-05,0.0,0 STARLINK-5308,1 55300U 23010AH  23066.13658687  .00009497  00000-0  80585-4 0  9999,2 55300  69.9995 297.8752 0003702 264.5947  95.4826 15.69946320  7827,6737.188,91.723,361.547,356.558,0.0
55300.0,STARLINK-5308,PAYLOAD,2023-03-07 21:37:42,15.69943324,0.0003187,70.0002,295.7272,263.4877,96.5956,7.4459e-05,8.757e-05,0.0,0 STARLINK-5308,1 55300U 23010AH  23066.90118900  .00008757  00000-0  74459-4 0  9994,2 55300  70.0002 295.7272 0003187 263.4877  96.5956 15.69943324  7940,6737.196,91.723,361.208,356.914,0.0
55300.0,STARLINK-5308,PAYLOAD,2023-03-08 14:26:59,15.69925609,0.0003221,70.0002,293.7566,268.9938,91.0888,1.583e-05,1.691e-05,0.0,0 STARLINK-5308,1 55300U 23010AH  23067.60207794  .00001691  00000-0  15830-4 0  9990,2 55300  70.0002 293.7566 0003221 268.9938  91.0888 15.69925609  8054,6737.247,91.724,361.282,356.942,0.0
55300.0,STARLINK-5308,PAYLOAD,2023-03-08 23:37:29,15.69947846,0.0002954,69.9998,292.6819,267.8154,92.2703,0.00012561,0.00014932,0.0,0 STARLINK-5308,1 55300U 23010AH  23067.98437418  .00014932  00000-0  12561-3 0  9998,2 55300  69.9998 292.6819 0002954 267.8154  92.2703 15.69947846  8117,6737.183,91.723,361.038,357.058,0.0
55300.0,STARLINK-5308,PAYLOAD,2023-03-09 17:58:31,15.69925627,0.0003451,70.0,290.5313,264.2341,95.8461,8.6071e-05,0.0001015,0.0,0 STARLINK-5308,1 55300U 23010AH  23068.74897666  .00010150  00000-0  86071-4 0  9994,2 55300  70.0000 290.5313 0003451 264.2341  95.8461 15.69925627  8238,6737.247,91.724,361.437,356.787,0.0
55300.0,STARLINK-5308,PAYLOAD,2023-03-09 21:02:01,15.69937363,0.0003435,69.9988,290.1717,261.3821,98.6986,6.5942e-05,7.728e-05,0.0,0 STARLINK-5308,1 55300U 23010AH  23068.87640665  .00007728  00000-0  65942-4 0  9994,2 55300  69.9988 290.1717 0003435 261.3821  98.6986 15.69937363  8566,6737.213,91.723,361.392,356.764,0.0
55300.0,STARLINK-5308,PAYLOAD,2023-03-10 00:05:31,15.69950076,0.000375,70.0001,289.8145,264.8491,95.2277,0.00014715,0.00017538,0.0,0 STARLINK-5308,1 55300U 23010AH  23069.00384072  .00017538  00000-0  14715-3 0  9998,2 55300  70.0001 289.8145 0003750 264.8491  95.2277 15.69950076  8276,6737.177,91.723,361.568,356.515,0.0
55300.0,STARLINK-5308,PAYLOAD,2023-03-10 07:44:18,15.69920245,0.0002497,70.0007,288.921,266.3904,93.7006,3.454e-05,3.942e-05,0.0,0 STARLINK-5308,1 55300U 23010AH  23069.32243318  .00003942  00000-0  34540-4 0  9993,2 55300  70.0007 288.9210 0002497 266.3904  93.7006 15.69920245  8322,6737.262,91.724,360.809,357.445,0.0
